Type,Name,Street Address,City,Latitude,Longitude,Image,NYPL
Hotel,Clark,"1824 Central Ave., Los Angeles, California, United States",Los Angeles,34.049784,-118.046846,https://upload.wikimedia.org/wikipedia/commons/thumb/7/70/The_Negro_Motorist_Green_Book.jpg/646px-The_Negro_Motorist_Green_Book.jpg,https://digitalcollections.nypl.org/items/29219280-892b-0132-4271-58d385a7bbd0
Hotel,Arcade,"542 Ceres Ave., Los Angeles, California, United States",Los Angeles,34.0405643,-118.2407291,https://upload.wikimedia.org/wikipedia/commons/thumb/7/70/The_Negro_Motorist_Green_Book.jpg/646px-The_Negro_Motorist_Green_Book.jpg,https://digitalcollections.nypl.org/items/29219280-892b-0132-4271-58d385a7bbd1
Hotel,Lincoln,"549 Ceres Ave., Los Angeles, California, United States",Los Angeles,34.040432,-118.241163,https://upload.wikimedia.org/wikipedia/commons/thumb/7/70/The_Negro_Motorist_Green_Book.jpg/646px-The_Negro_Motorist_Green_Book.jpg,https://digitalcollections.nypl.org/items/29219280-892b-0132-4271-58d385a7bbd2
Hotel,Sberidan,"1824 Central Ave., Los Angeles, California, United States",Los Angeles,34.049784,-118.046846,https://upload.wikimedia.org/wikipedia/commons/thumb/7/70/The_Negro_Motorist_Green_Book.jpg/646px-The_Negro_Motorist_Green_Book.jpg,https://digitalcollections.nypl.org/items/29219280-892b-0132-4271-58d385a7bbd3
Hotel,McAlpin,"648 Stanford Ave., Los Angeles, California, United States",Los Angeles,34.0395808,-118.2436406,https://upload.wikimedia.org/wikipedia/commons/thumb/7/70/The_Negro_Motorist_Green_Book.jpg/646px-The_Negro_Motorist_Green_Book.jpg,https://digitalcollections.nypl.org/items/29219280-892b-0132-4271-58d385a7bbd4
Hotel,Elite,"1217 South Central Ave., Los Angeles, California, United States",Los Angeles,34.0300306,-118.245383,https://upload.wikimedia.org/wikipedia/commons/thumb/7/70/The_Negro_Motorist_Green_Book.jpg/646px-The_Negro_Motorist_Green_Book.jpg,https://digitalcollections.nypl.org/items/29219280-892b-0132-4271-58d385a7bbd5
Hotel,Olympic,"843 South Central Ave, Los Angeles, California, United States",Los Angeles,34.0325885,-118.2438409,https://upload.wikimedia.org/wikipedia/commons/thumb/7/70/The_Negro_Motorist_Green_Book.jpg/646px-The_Negro_Motorist_Green_Book.jpg,https://digitalcollections.nypl.org/items/29219280-892b-0132-4271-58d385a7bbd6
Hotel,Regal,"815 East 6th St., Los Angeles, California, United States",Los Angeles,34.0406819,-118.242206,https://upload.wikimedia.org/wikipedia/commons/thumb/7/70/The_Negro_Motorist_Green_Book.jpg/646px-The_Negro_Motorist_Green_Book.jpg,https://digitalcollections.nypl.org/items/29219280-892b-0132-4271-58d385a7bbd7
Hotel,Sojourner's,"1119 East Adams Blvd., Los Angeles, California, United States",Los Angeles,34.018663,-118.2541265,https://upload.wikimedia.org/wikipedia/commons/thumb/7/70/The_Negro_Motorist_Green_Book.jpg/646px-The_Negro_Motorist_Green_Book.jpg,https://digitalcollections.nypl.org/items/29219280-892b-0132-4271-58d385a7bbd8
Hotel,Kentucky,"1123 Central Ave., Los Angeles, California, United States",Los Angeles,34.0304349,-118.2451066,https://upload.wikimedia.org/wikipedia/commons/thumb/7/70/The_Negro_Motorist_Green_Book.jpg/646px-The_Negro_Motorist_Green_Book.jpg,https://digitalcollections.nypl.org/items/29219280-892b-0132-4271-58d385a7bbd9
Hotel,Avon,"405 South Hewitt, Los Angeles, California, United States",Los Angeles,34.0432096,-118.2354324,https://upload.wikimedia.org/wikipedia/commons/thumb/7/70/The_Negro_Motorist_Green_Book.jpg/646px-The_Negro_Motorist_Green_Book.jpg,https://digitalcollections.nypl.org/items/29219280-892b-0132-4271-58d385a7bbd10
Hotel,Dunbar,"4225 South Central Ave., Los Angeles, California, United States",Los Angeles,34.0068211,-118.2567161,https://upload.wikimedia.org/wikipedia/commons/thumb/7/70/The_Negro_Motorist_Green_Book.jpg/646px-The_Negro_Motorist_Green_Book.jpg,https://digitalcollections.nypl.org/items/29219280-892b-0132-4271-58d385a7bbd11
Hotel,Morris,"809 East 5th St., Los Angeles, California, United States",Los Angeles,34.0426093,-118.2408277,https://upload.wikimedia.org/wikipedia/commons/thumb/7/70/The_Negro_Motorist_Green_Book.jpg/646px-The_Negro_Motorist_Green_Book.jpg,https://digitalcollections.nypl.org/items/29219280-892b-0132-4271-58d385a7bbd12
Hotel,Glacier,"523 Stanford St., Los Angeles, California, United States",Los Angeles,34.042134,-118.241947,https://upload.wikimedia.org/wikipedia/commons/thumb/7/70/The_Negro_Motorist_Green_Book.jpg/646px-The_Negro_Motorist_Green_Book.jpg,https://digitalcollections.nypl.org/items/29219280-892b-0132-4271-58d385a7bbd13
Tourist Homes,Mrs. B. Hoffman,"760 West 17th St., Los Angeles, California, United States",Los Angeles,33.7289858,-118.2937575,https://upload.wikimedia.org/wikipedia/commons/thumb/7/70/The_Negro_Motorist_Green_Book.jpg/646px-The_Negro_Motorist_Green_Book.jpg,https://digitalcollections.nypl.org/items/29219280-892b-0132-4271-58d385a7bbd14
Restaurants,Marble Inn,"1820 Imperial Highway, Los Angeles, California, United States",Los Angeles,33.9309055,-118.3096874,https://upload.wikimedia.org/wikipedia/commons/thumb/7/70/The_Negro_Motorist_Green_Book.jpg/646px-The_Negro_Motorist_Green_Book.jpg,https://digitalcollections.nypl.org/items/29219280-892b-0132-4271-58d385a7bbd15
Restaurants,Robertson's,"4815 South Central Ave., Los Angeles, California, United States",Los Angeles,33.9997965,-118.2564854,https://upload.wikimedia.org/wikipedia/commons/thumb/7/70/The_Negro_Motorist_Green_Book.jpg/646px-The_Negro_Motorist_Green_Book.jpg,https://digitalcollections.nypl.org/items/29219280-892b-0132-4271-58d385a7bbd16
Restaurants,Chief,"4400 South Avalon Blvd., Los Angeles, California, United States",Los Angeles,34.0037214,-118.2650884,https://upload.wikimedia.org/wikipedia/commons/thumb/7/70/The_Negro_Motorist_Green_Book.jpg/646px-The_Negro_Motorist_Green_Book.jpg,https://digitalcollections.nypl.org/items/29219280-892b-0132-4271-58d385a7bbd17
Restaurants,Ivie's,"1105 1/2 East Vernon Ave., Los Angeles, California, United States",Los Angeles,34.0037146,-118.2641197,https://upload.wikimedia.org/wikipedia/commons/thumb/7/70/The_Negro_Motorist_Green_Book.jpg/646px-The_Negro_Motorist_Green_Book.jpg,https://digitalcollections.nypl.org/items/29219280-892b-0132-4271-58d385a7bbd18
Restaurants,Pig N' Pat,"4200 South Central Ave., Los Angeles, California, United States",Los Angeles,34.00738,-118.256294,https://upload.wikimedia.org/wikipedia/commons/thumb/7/70/The_Negro_Motorist_Green_Book.jpg/646px-The_Negro_Motorist_Green_Book.jpg,https://digitalcollections.nypl.org/items/29219280-892b-0132-4271-58d385a7bbd19
Restaurants,Henry Bros.,"10359 Wilmington, Los Angeles, California, United States",Los Angeles,33.9419451,-118.2390976,https://upload.wikimedia.org/wikipedia/commons/thumb/7/70/The_Negro_Motorist_Green_Book.jpg/646px-The_Negro_Motorist_Green_Book.jpg,https://digitalcollections.nypl.org/items/29219280-892b-0132-4271-58d385a7bbd20
Restaurants,Banks,"4019 South Avalon Blvd., Los Angeles, California, United States",Los Angeles,34.0107071,-118.2652704,https://upload.wikimedia.org/wikipedia/commons/thumb/7/70/The_Negro_Motorist_Green_Book.jpg/646px-The_Negro_Motorist_Green_Book.jpg,https://digitalcollections.nypl.org/items/29219280-892b-0132-4271-58d385a7bbd21
Restaurants,Nita's,"125 West Vernon Ave., Los Angeles, California, United States",Los Angeles,34.004007,-118.2746926,https://upload.wikimedia.org/wikipedia/commons/thumb/7/70/The_Negro_Motorist_Green_Book.jpg/646px-The_Negro_Motorist_Green_Book.jpg,https://digitalcollections.nypl.org/items/29219280-892b-0132-4271-58d385a7bbd22
Restaurants,John's,"3519 South Western, Los Angeles, California, United States",Los Angeles,34.0241033,-118.3089122,https://upload.wikimedia.org/wikipedia/commons/thumb/7/70/The_Negro_Motorist_Green_Book.jpg/646px-The_Negro_Motorist_Green_Book.jpg,https://digitalcollections.nypl.org/items/29219280-892b-0132-4271-58d385a7bbd23
Restaurants,Woodson's,"West Jefferson Blvd & Raymond Ave., Los Angeles, California, United States",Los Angeles,34.0255216,-118.298086,https://upload.wikimedia.org/wikipedia/commons/thumb/7/70/The_Negro_Motorist_Green_Book.jpg/646px-The_Negro_Motorist_Green_Book.jpg,https://digitalcollections.nypl.org/items/29219280-892b-0132-4271-58d385a7bbd24
Restaurants,Eddie's,"4201 South Central Ave., Los Angeles, California, United States",Los Angeles,34.0072416,-118.2567539,https://upload.wikimedia.org/wikipedia/commons/thumb/7/70/The_Negro_Motorist_Green_Book.jpg/646px-The_Negro_Motorist_Green_Book.jpg,https://digitalcollections.nypl.org/items/29219280-892b-0132-4271-58d385a7bbd25
Restaurants,Blue Room,"9900 South Central Ave., Los Angeles, California, United States",Los Angeles,33.946779,-118.2537655,https://upload.wikimedia.org/wikipedia/commons/thumb/7/70/The_Negro_Motorist_Green_Book.jpg/646px-The_Negro_Motorist_Green_Book.jpg,https://digitalcollections.nypl.org/items/29219280-892b-0132-4271-58d385a7bbd26
Restaurants,Casa Blanca,"2801 South San Pedro St., Los Angeles, California, United States",Los Angeles,34.0198396,-118.2626854,https://upload.wikimedia.org/wikipedia/commons/thumb/7/70/The_Negro_Motorist_Green_Book.jpg/646px-The_Negro_Motorist_Green_Book.jpg,https://digitalcollections.nypl.org/items/29219280-892b-0132-4271-58d385a7bbd27
Restaurants,Gingham,"111 North San Pedro Ave., Los Angeles, California, United States",Los Angeles,34.0500968,-118.2413802,https://upload.wikimedia.org/wikipedia/commons/thumb/7/70/The_Negro_Motorist_Green_Book.jpg/646px-The_Negro_Motorist_Green_Book.jpg,https://digitalcollections.nypl.org/items/29219280-892b-0132-4271-58d385a7bbd28
Restaurants,Zombie,"5432 South Central Ave, Los Angeles, California, United States",Los Angeles,33.993215,-118.2564656,https://upload.wikimedia.org/wikipedia/commons/thumb/7/70/The_Negro_Motorist_Green_Book.jpg/646px-The_Negro_Motorist_Green_Book.jpg,https://digitalcollections.nypl.org/items/29219280-892b-0132-4271-58d385a7bbd29
Restaurants,Bobbie's,"4001 Avalon Ave., Los Angeles, California, United States",Los Angeles,34.0110622,-118.2652735,https://upload.wikimedia.org/wikipedia/commons/thumb/7/70/The_Negro_Motorist_Green_Book.jpg/646px-The_Negro_Motorist_Green_Book.jpg,https://digitalcollections.nypl.org/items/29219280-892b-0132-4271-58d385a7bbd30
Restaurants,The Fawn,"Western & 29th St., Los Angeles, California, United States",Los Angeles,34.0290987,-118.3089481,https://upload.wikimedia.org/wikipedia/commons/thumb/7/70/The_Negro_Motorist_Green_Book.jpg/646px-The_Negro_Motorist_Green_Book.jpg,https://digitalcollections.nypl.org/items/29219280-892b-0132-4271-58d385a7bbd31
Restaurants,Are,"4067 South Central Ave., Los Angeles, California, United States",Los Angeles,34.0095265,-118.2567986,https://upload.wikimedia.org/wikipedia/commons/thumb/7/70/The_Negro_Motorist_Green_Book.jpg/646px-The_Negro_Motorist_Green_Book.jpg,https://digitalcollections.nypl.org/items/29219280-892b-0132-4271-58d385a7bbd32
Restaurants,Shadowland,"4505 Avalon Ave., Los Angeles, California, United States",Los Angeles,34.0023144,-118.2655856,https://upload.wikimedia.org/wikipedia/commons/thumb/7/70/The_Negro_Motorist_Green_Book.jpg/646px-The_Negro_Motorist_Green_Book.jpg,https://digitalcollections.nypl.org/items/29219280-892b-0132-4271-58d385a7bbd33
Restaurants,Hi Jenks,"4428 Avalon Ave., Los Angeles, California, United States",Los Angeles,34.0030287,-118.2649679,https://upload.wikimedia.org/wikipedia/commons/thumb/7/70/The_Negro_Motorist_Green_Book.jpg/646px-The_Negro_Motorist_Green_Book.jpg,https://digitalcollections.nypl.org/items/29219280-892b-0132-4271-58d385a7bbd34
Restaurants,Waffle Shop,"1063 East 43 Street, Los Angeles, California, United States",Los Angeles,34.0059342,-118.2569258,https://upload.wikimedia.org/wikipedia/commons/thumb/7/70/The_Negro_Motorist_Green_Book.jpg/646px-The_Negro_Motorist_Green_Book.jpg,https://digitalcollections.nypl.org/items/29219280-892b-0132-4271-58d385a7bbd35
Restaurants,Clifton's,"618 S. Olive Street, Los Angeles, California, United States",Los Angeles,34.0472573,-118.2544149,https://upload.wikimedia.org/wikipedia/commons/thumb/7/70/The_Negro_Motorist_Green_Book.jpg/646px-The_Negro_Motorist_Green_Book.jpg,https://digitalcollections.nypl.org/items/29219280-892b-0132-4271-58d385a7bbd36
Restaurants,Digby,"1st & Alameda Street, Los Angeles, California, United States",Los Angeles,34.0489428,-118.2381171,https://upload.wikimedia.org/wikipedia/commons/thumb/7/70/The_Negro_Motorist_Green_Book.jpg/646px-The_Negro_Motorist_Green_Book.jpg,https://digitalcollections.nypl.org/items/29219280-892b-0132-4271-58d385a7bbd37
Beauty Parlor,Creole,"2221 South Central Ave., Los Angeles, California, United States",Los Angeles,34.0216868,-118.2533982,https://upload.wikimedia.org/wikipedia/commons/thumb/7/70/The_Negro_Motorist_Green_Book.jpg/646px-The_Negro_Motorist_Green_Book.jpg,https://digitalcollections.nypl.org/items/29219280-892b-0132-4271-58d385a7bbd38
Beauty Parlor,Mary Esther,"1709 East 103rd St., Los Angeles, California, United States",Los Angeles,33.9432309,-118.2428998,https://upload.wikimedia.org/wikipedia/commons/thumb/7/70/The_Negro_Motorist_Green_Book.jpg/646px-The_Negro_Motorist_Green_Book.jpg,https://digitalcollections.nypl.org/items/29219280-892b-0132-4271-58d385a7bbd39
Beauty Parlor,Tex,"2830 South San Pedro St., Los Angeles, California, United States",Los Angeles,34.0195988,-118.2625863,https://upload.wikimedia.org/wikipedia/commons/thumb/7/70/The_Negro_Motorist_Green_Book.jpg/646px-The_Negro_Motorist_Green_Book.jpg,https://digitalcollections.nypl.org/items/29219280-892b-0132-4271-58d385a7bbd40
Beauty Parlor,Sherwoods,"5113 South Central Ave., Los Angeles, California, United States",Los Angeles,33.9961735,-118.2565996,https://upload.wikimedia.org/wikipedia/commons/thumb/7/70/The_Negro_Motorist_Green_Book.jpg/646px-The_Negro_Motorist_Green_Book.jpg,https://digitalcollections.nypl.org/items/29219280-892b-0132-4271-58d385a7bbd41
Beauty Parlor,Studio,"2515 South Central Ave., Los Angeles, California, United States",Los Angeles,34.0192487,-118.2553961,https://upload.wikimedia.org/wikipedia/commons/thumb/7/70/The_Negro_Motorist_Green_Book.jpg/646px-The_Negro_Motorist_Green_Book.jpg,https://digitalcollections.nypl.org/items/29219280-892b-0132-4271-58d385a7bbd42
Beauty Parlor,Continental,"5203 Hooper Ave., Los Angeles, California, United States",Los Angeles,33.9957733,-118.2521273,https://upload.wikimedia.org/wikipedia/commons/thumb/7/70/The_Negro_Motorist_Green_Book.jpg/646px-The_Negro_Motorist_Green_Book.jpg,https://digitalcollections.nypl.org/items/29219280-892b-0132-4271-58d385a7bbd43
Beauty Parlor,Anna Mae's,"4446 Avalon Ave., Los Angeles, California, United States",Los Angeles,34.0027133,-118.2652502,https://upload.wikimedia.org/wikipedia/commons/thumb/7/70/The_Negro_Motorist_Green_Book.jpg/646px-The_Negro_Motorist_Green_Book.jpg,https://digitalcollections.nypl.org/items/29219280-892b-0132-4271-58d385a7bbd44
Beauty Parlor,Gorum,"5440 South Central Ave., Los Angeles, California, United States",Los Angeles,33.9931398,-118.2560978,https://upload.wikimedia.org/wikipedia/commons/thumb/7/70/The_Negro_Motorist_Green_Book.jpg/646px-The_Negro_Motorist_Green_Book.jpg,https://digitalcollections.nypl.org/items/29219280-892b-0132-4271-58d385a7bbd45
Beauty Parlor,Louise,"816 East 5th St., Los Angeles, California, United States",Los Angeles,34.0422312,-118.2407202,https://upload.wikimedia.org/wikipedia/commons/thumb/7/70/The_Negro_Motorist_Green_Book.jpg/646px-The_Negro_Motorist_Green_Book.jpg,https://digitalcollections.nypl.org/items/29219280-892b-0132-4271-58d385a7bbd46
Beauty Parlor,Triangle,"43 San Pedro & Walls Sts., Los Angeles, California, United States",Los Angeles,34.005327,-118.2716747,https://upload.wikimedia.org/wikipedia/commons/thumb/7/70/The_Negro_Motorist_Green_Book.jpg/646px-The_Negro_Motorist_Green_Book.jpg,https://digitalcollections.nypl.org/items/29219280-892b-0132-4271-58d385a7bbd47
Beauty Parlor,Colonial,"1813 1/2 South Central Ave., Los Angeles, California, United States",Los Angeles,34.0443738,-118.2393999,https://upload.wikimedia.org/wikipedia/commons/thumb/7/70/The_Negro_Motorist_Green_Book.jpg/646px-The_Negro_Motorist_Green_Book.jpg,https://digitalcollections.nypl.org/items/29219280-892b-0132-4271-58d385a7bbd48
Beauty Parlor,Dunbar,"4225 South Central Ave., Los Angeles, California, United States",Los Angeles,34.0068211,-118.2567161,https://upload.wikimedia.org/wikipedia/commons/thumb/7/70/The_Negro_Motorist_Green_Book.jpg/646px-The_Negro_Motorist_Green_Book.jpg,https://digitalcollections.nypl.org/items/29219280-892b-0132-4271-58d385a7bbd49
Beauty Parlor,M. Wilson,"2818 South Central Ave., Los Angeles, California, United States",Los Angeles,34.0161073,-118.2560396,https://upload.wikimedia.org/wikipedia/commons/thumb/7/70/The_Negro_Motorist_Green_Book.jpg/646px-The_Negro_Motorist_Green_Book.jpg,https://digitalcollections.nypl.org/items/29219280-892b-0132-4271-58d385a7bbd50
Beauty Parlor,Beauty Salon,"1195 East 35th St., Los Angeles, California, United States",Los Angeles,34.0121674,-118.2543148,https://upload.wikimedia.org/wikipedia/commons/thumb/7/70/The_Negro_Motorist_Green_Book.jpg/646px-The_Negro_Motorist_Green_Book.jpg,https://digitalcollections.nypl.org/items/29219280-892b-0132-4271-58d385a7bbd51
Barber Shop,Hotel,"1808 South Central Ave., Los Angeles, California, United States",Los Angeles,34.024789,-118.2499421,https://upload.wikimedia.org/wikipedia/commons/thumb/7/70/The_Negro_Motorist_Green_Book.jpg/646px-The_Negro_Motorist_Green_Book.jpg,https://digitalcollections.nypl.org/items/29219280-892b-0132-4271-58d385a7bbd52
Barber Shop,Elite,"4204 South Central Ave., Los Angeles, California, United States",Los Angeles,34.007277,-118.256093,https://upload.wikimedia.org/wikipedia/commons/thumb/7/70/The_Negro_Motorist_Green_Book.jpg/646px-The_Negro_Motorist_Green_Book.jpg,https://digitalcollections.nypl.org/items/29219280-892b-0132-4271-58d385a7bbd53
Barber Shop,Connie's,"2204 South Central Ave., Los Angeles, California, United States",Los Angeles,34.0213693,-118.2531918,https://upload.wikimedia.org/wikipedia/commons/thumb/7/70/The_Negro_Motorist_Green_Book.jpg/646px-The_Negro_Motorist_Green_Book.jpg,https://digitalcollections.nypl.org/items/29219280-892b-0132-4271-58d385a7bbd54
Barber Shop,Bertha's,"1434 West Jefferson Blvd., Los Angeles, California, United States",Los Angeles,34.0255224,-118.2984919,https://upload.wikimedia.org/wikipedia/commons/thumb/7/70/The_Negro_Motorist_Green_Book.jpg/646px-The_Negro_Motorist_Green_Book.jpg,https://digitalcollections.nypl.org/items/29219280-892b-0132-4271-58d385a7bbd55
Barber Shop,Personality,"4222 South Central Ave., Los Angeles, California, United States",Los Angeles,34.006817,-118.256106,https://upload.wikimedia.org/wikipedia/commons/thumb/7/70/The_Negro_Motorist_Green_Book.jpg/646px-The_Negro_Motorist_Green_Book.jpg,https://digitalcollections.nypl.org/items/29219280-892b-0132-4271-58d385a7bbd56
Barber Shop,Williams,"3615 South Western, Los Angeles, California, United States",Los Angeles,34.022398,-118.3091882,https://upload.wikimedia.org/wikipedia/commons/thumb/7/70/The_Negro_Motorist_Green_Book.jpg/646px-The_Negro_Motorist_Green_Book.jpg,https://digitalcollections.nypl.org/items/29219280-892b-0132-4271-58d385a7bbd57
Barber Shop,Echo,"S Central Ave & E 43rd St, Los Angeles, California, United States",Los Angeles,34.0057592,-118.2565086,https://upload.wikimedia.org/wikipedia/commons/thumb/7/70/The_Negro_Motorist_Green_Book.jpg/646px-The_Negro_Motorist_Green_Book.jpg,https://digitalcollections.nypl.org/items/29219280-892b-0132-4271-58d385a7bbd58
Tavern,Marble Inn,"1820 Imperial Highway, Los Angeles, California, United States",Los Angeles,33.9309055,-118.3096874,https://upload.wikimedia.org/wikipedia/commons/thumb/7/70/The_Negro_Motorist_Green_Book.jpg/646px-The_Negro_Motorist_Green_Book.jpg,https://digitalcollections.nypl.org/items/29219280-892b-0132-4271-58d385a7bbd59
Tavern,Margot,"5259 South Central Ave., Los Angeles, California, United States",Los Angeles,33.9948172,-118.2564673,https://upload.wikimedia.org/wikipedia/commons/thumb/7/70/The_Negro_Motorist_Green_Book.jpg/646px-The_Negro_Motorist_Green_Book.jpg,https://digitalcollections.nypl.org/items/29219280-892b-0132-4271-58d385a7bbd60
Tavern,Emerald Room,"901 East 6th St., Los Angeles, California, United States",Los Angeles,34.03994,-118.2410503,https://upload.wikimedia.org/wikipedia/commons/thumb/7/70/The_Negro_Motorist_Green_Book.jpg/646px-The_Negro_Motorist_Green_Book.jpg,https://digitalcollections.nypl.org/items/29219280-892b-0132-4271-58d385a7bbd61
Tavern,Golden Gate,"1719 East 103rd St., Los Angeles, California, United States",Los Angeles,33.9432336,-118.2426669,https://upload.wikimedia.org/wikipedia/commons/thumb/7/70/The_Negro_Motorist_Green_Book.jpg/646px-The_Negro_Motorist_Green_Book.jpg,https://digitalcollections.nypl.org/items/29219280-892b-0132-4271-58d385a7bbd62
Tavern,Paradise,"5505 South Central Ave., Los Angeles, California, United States",Los Angeles,33.992359,-118.2566537,https://upload.wikimedia.org/wikipedia/commons/thumb/7/70/The_Negro_Motorist_Green_Book.jpg/646px-The_Negro_Motorist_Green_Book.jpg,https://digitalcollections.nypl.org/items/29219280-892b-0132-4271-58d385a7bbd63
Tavern,Samba,"E 5th St & Towne Ave, Los Angeles, California, United States",Los Angeles,34.0430366,-118.2420079,https://upload.wikimedia.org/wikipedia/commons/thumb/7/70/The_Negro_Motorist_Green_Book.jpg/646px-The_Negro_Motorist_Green_Book.jpg,https://digitalcollections.nypl.org/items/29219280-892b-0132-4271-58d385a7bbd64
Tavern,Onyx,"1808 South Central Ave., Los Angeles, California, United States",Los Angeles,34.024789,-118.2499421,https://upload.wikimedia.org/wikipedia/commons/thumb/7/70/The_Negro_Motorist_Green_Book.jpg/646px-The_Negro_Motorist_Green_Book.jpg,https://digitalcollections.nypl.org/items/29219280-892b-0132-4271-58d385a7bbd65
Tavern,Crisbar,"2829 South Western Ave., Los Angeles, California, United States",Los Angeles,34.0292075,-118.309176,https://upload.wikimedia.org/wikipedia/commons/thumb/7/70/The_Negro_Motorist_Green_Book.jpg/646px-The_Negro_Motorist_Green_Book.jpg,https://digitalcollections.nypl.org/items/29219280-892b-0132-4271-58d385a7bbd66
Tavern,Reney's,"2023 South Central Ave., Los Angeles, California, United States",Los Angeles,34.0233374,-118.251777,https://upload.wikimedia.org/wikipedia/commons/thumb/7/70/The_Negro_Motorist_Green_Book.jpg/646px-The_Negro_Motorist_Green_Book.jpg,https://digitalcollections.nypl.org/items/29219280-892b-0132-4271-58d385a7bbd67
Tavern,Johnson's,"4201 South Main St., Los Angeles, California, United States",Los Angeles,34.0071475,-118.274289,https://upload.wikimedia.org/wikipedia/commons/thumb/7/70/The_Negro_Motorist_Green_Book.jpg/646px-The_Negro_Motorist_Green_Book.jpg,https://digitalcollections.nypl.org/items/29219280-892b-0132-4271-58d385a7bbd68
Tavern,Casa Blanca,"2801 South San Pedro, Los Angeles, California, United States",Los Angeles,34.0198396,-118.2626854,https://upload.wikimedia.org/wikipedia/commons/thumb/7/70/The_Negro_Motorist_Green_Book.jpg/646px-The_Negro_Motorist_Green_Book.jpg,https://digitalcollections.nypl.org/items/29219280-892b-0132-4271-58d385a7bbd69
Night Club,Club Alabam,"4215 South Central Ave., Los Angeles, California, United States",Los Angeles,34.0070176,-118.256511,https://upload.wikimedia.org/wikipedia/commons/thumb/7/70/The_Negro_Motorist_Green_Book.jpg/646px-The_Negro_Motorist_Green_Book.jpg,https://digitalcollections.nypl.org/items/29219280-892b-0132-4271-58d385a7bbd70
Night Club,Down Beat,"4201 South Central Ave., Los Angeles, California, United States",Los Angeles,34.0072416,-118.2567539,https://upload.wikimedia.org/wikipedia/commons/thumb/7/70/The_Negro_Motorist_Green_Book.jpg/646px-The_Negro_Motorist_Green_Book.jpg,https://digitalcollections.nypl.org/items/29219280-892b-0132-4271-58d385a7bbd71
Night Club,Plantation,"S Central Ave & E 108th St, Los Angeles, California, United States",Los Angeles,33.9382854,-118.2541916,https://upload.wikimedia.org/wikipedia/commons/thumb/7/70/The_Negro_Motorist_Green_Book.jpg/646px-The_Negro_Motorist_Green_Book.jpg,https://digitalcollections.nypl.org/items/29219280-892b-0132-4271-58d385a7bbd72
Night Club,Cafe Society,"2711 South San Pedro St., Los Angeles, California, United States",Los Angeles,34.0203837,-118.2622743,https://upload.wikimedia.org/wikipedia/commons/thumb/7/70/The_Negro_Motorist_Green_Book.jpg/646px-The_Negro_Motorist_Green_Book.jpg,https://digitalcollections.nypl.org/items/29219280-892b-0132-4271-58d385a7bbd73
Night Club,Basket Room,"3219 South Central Ave., Los Angeles, California, United States",Los Angeles,34.0141867,-118.2565341,https://upload.wikimedia.org/wikipedia/commons/thumb/7/70/The_Negro_Motorist_Green_Book.jpg/646px-The_Negro_Motorist_Green_Book.jpg,https://digitalcollections.nypl.org/items/29219280-892b-0132-4271-58d385a7bbd74
Night Club,Harlem,"E 118th St & Parmelee Ave, Los Angeles, California, United States",Los Angeles,33.9263609,-118.2504919,https://upload.wikimedia.org/wikipedia/commons/thumb/7/70/The_Negro_Motorist_Green_Book.jpg/646px-The_Negro_Motorist_Green_Book.jpg,https://digitalcollections.nypl.org/items/29219280-892b-0132-4271-58d385a7bbd75
Night Club,Rumboogie,"1751 1/2 East 103rd St., Los Angeles, California, United States",Los Angeles,33.9429313,-118.2356915,https://upload.wikimedia.org/wikipedia/commons/thumb/7/70/The_Negro_Motorist_Green_Book.jpg/646px-The_Negro_Motorist_Green_Book.jpg,https://digitalcollections.nypl.org/items/29219280-892b-0132-4271-58d385a7bbd76
Night Club,Harlem,"11812 Parmelee, Los Angeles, California, United States",Los Angeles,33.9263692,-118.2504918,https://upload.wikimedia.org/wikipedia/commons/thumb/7/70/The_Negro_Motorist_Green_Book.jpg/646px-The_Negro_Motorist_Green_Book.jpg,https://digitalcollections.nypl.org/items/29219280-892b-0132-4271-58d385a7bbd77
Night Club,Tommy Brookins,"1808 South Central Ave., Los Angeles, California, United States",Los Angeles,34.024789,-118.2499421,https://upload.wikimedia.org/wikipedia/commons/thumb/7/70/The_Negro_Motorist_Green_Book.jpg/646px-The_Negro_Motorist_Green_Book.jpg,https://digitalcollections.nypl.org/items/29219280-892b-0132-4271-58d385a7bbd78
Night Club,Billy Bergs,"1354 North Vine Street, Los Angeles, California, United States",Los Angeles,34.0959292,-118.3264065,https://upload.wikimedia.org/wikipedia/commons/thumb/7/70/The_Negro_Motorist_Green_Book.jpg/646px-The_Negro_Motorist_Green_Book.jpg,https://digitalcollections.nypl.org/items/29219280-892b-0132-4271-58d385a7bbd79
Road House,Casa Blanca,"2801 South San Pedro St., Los Angeles, California, United States",Los Angeles,34.0198396,-118.2626854,https://upload.wikimedia.org/wikipedia/commons/thumb/7/70/The_Negro_Motorist_Green_Book.jpg/646px-The_Negro_Motorist_Green_Book.jpg,https://digitalcollections.nypl.org/items/29219280-892b-0132-4271-58d385a7bbd80
Liquor Store,House of Morgan,"2729 South Central, Los Angeles, California, United States",Los Angeles,34.0170262,-118.2558364,https://upload.wikimedia.org/wikipedia/commons/thumb/7/70/The_Negro_Motorist_Green_Book.jpg/646px-The_Negro_Motorist_Green_Book.jpg,https://digitalcollections.nypl.org/items/29219280-892b-0132-4271-58d385a7bbd81
Liquor Store,Mike's,"10959 Wilmington, Los Angeles, California, United States",Los Angeles,33.9359631,-118.2391788,https://upload.wikimedia.org/wikipedia/commons/thumb/7/70/The_Negro_Motorist_Green_Book.jpg/646px-The_Negro_Motorist_Green_Book.jpg,https://digitalcollections.nypl.org/items/29219280-892b-0132-4271-58d385a7bbd82
Liquor Store,Dunbar,"4223 South Central Ave., Los Angeles, California, United States",Los Angeles,34.0069077,-118.2567159,https://upload.wikimedia.org/wikipedia/commons/thumb/7/70/The_Negro_Motorist_Green_Book.jpg/646px-The_Negro_Motorist_Green_Book.jpg,https://digitalcollections.nypl.org/items/29219280-892b-0132-4271-58d385a7bbd83
Liquor Store,Jackson's,"5501 South Central Ave., Los Angeles, California, United States",Los Angeles,33.9924317,-118.2567338,https://upload.wikimedia.org/wikipedia/commons/thumb/7/70/The_Negro_Motorist_Green_Book.jpg/646px-The_Negro_Motorist_Green_Book.jpg,https://digitalcollections.nypl.org/items/29219280-892b-0132-4271-58d385a7bbd84
Service Stations,Valentine's Service,"2657 South Western Ave., Los Angeles, California, United States",Los Angeles,34.031138,-118.30928,https://upload.wikimedia.org/wikipedia/commons/thumb/7/70/The_Negro_Motorist_Green_Book.jpg/646px-The_Negro_Motorist_Green_Book.jpg,https://digitalcollections.nypl.org/items/29219280-892b-0132-4271-58d385a7bbd85
Service Stations,Newton's,"3903 South Central Ave., Los Angeles, California, United States",Los Angeles,33.8829399,-118.2488616,https://upload.wikimedia.org/wikipedia/commons/thumb/7/70/The_Negro_Motorist_Green_Book.jpg/646px-The_Negro_Motorist_Green_Book.jpg,https://digitalcollections.nypl.org/items/29219280-892b-0132-4271-58d385a7bbd86
Service Stations,Hopkins Signal Ser.,"3426 Central Ave., Los Angeles, California, United States",Los Angeles,34.012127,-118.2565163,https://upload.wikimedia.org/wikipedia/commons/thumb/7/70/The_Negro_Motorist_Green_Book.jpg/646px-The_Negro_Motorist_Green_Book.jpg,https://digitalcollections.nypl.org/items/29219280-892b-0132-4271-58d385a7bbd87
Service Stations,Long's,"2732 South Central Ave., Los Angeles, California, United States",Los Angeles,34.0167755,-118.2553912,https://upload.wikimedia.org/wikipedia/commons/thumb/7/70/The_Negro_Motorist_Green_Book.jpg/646px-The_Negro_Motorist_Green_Book.jpg,https://digitalcollections.nypl.org/items/29219280-892b-0132-4271-58d385a7bbd88
Service Stations,Carner's,"4500 South Avalon Blvd., Los Angeles, California, United States",Los Angeles,34.0023743,-118.2648462,https://upload.wikimedia.org/wikipedia/commons/thumb/7/70/The_Negro_Motorist_Green_Book.jpg/646px-The_Negro_Motorist_Green_Book.jpg,https://digitalcollections.nypl.org/items/29219280-892b-0132-4271-58d385a7bbd89
Service Stations,Simpkins & Cower,"2227 South Central Ave., Los Angeles, California, United States",Los Angeles,34.0215907,-118.253597,https://upload.wikimedia.org/wikipedia/commons/thumb/7/70/The_Negro_Motorist_Green_Book.jpg/646px-The_Negro_Motorist_Green_Book.jpg,https://digitalcollections.nypl.org/items/29219280-892b-0132-4271-58d385a7bbd90
Service Stations,Si Johnson's,"3500 South Western Ave., Los Angeles, California, United States",Los Angeles,34.0243603,-118.3087005,https://upload.wikimedia.org/wikipedia/commons/thumb/7/70/The_Negro_Motorist_Green_Book.jpg/646px-The_Negro_Motorist_Green_Book.jpg,https://digitalcollections.nypl.org/items/29219280-892b-0132-4271-58d385a7bbd91
Service Stations,Tom's,"1424 West Jefferson Blvd., Los Angeles, California, United States",Los Angeles,34.0253091,-118.2979008,https://upload.wikimedia.org/wikipedia/commons/thumb/7/70/The_Negro_Motorist_Green_Book.jpg/646px-The_Negro_Motorist_Green_Book.jpg,https://digitalcollections.nypl.org/items/29219280-892b-0132-4271-58d385a7bbd92
Service Stations,Hughes,"2901 West Jefferson Blvd., Los Angeles, California, United States",Los Angeles,34.025889,-118.327331,https://upload.wikimedia.org/wikipedia/commons/thumb/7/70/The_Negro_Motorist_Green_Book.jpg/646px-The_Negro_Motorist_Green_Book.jpg,https://digitalcollections.nypl.org/items/29219280-892b-0132-4271-58d385a7bbd93
Service Stations,Brock,"1246 West Jefferson Blvd., Los Angeles, California, United States",Los Angeles,34.0255015,-118.2932422,https://upload.wikimedia.org/wikipedia/commons/thumb/7/70/The_Negro_Motorist_Green_Book.jpg/646px-The_Negro_Motorist_Green_Book.jpg,https://digitalcollections.nypl.org/items/29219280-892b-0132-4271-58d385a7bbd94
Service Stations,R. A. & S.,"East Jefferson & Griffith, Los Angeles, California, United States",Los Angeles,34.0137762,-118.2615332,https://upload.wikimedia.org/wikipedia/commons/thumb/7/70/The_Negro_Motorist_Green_Book.jpg/646px-The_Negro_Motorist_Green_Book.jpg,https://digitalcollections.nypl.org/items/29219280-892b-0132-4271-58d385a7bbd95
Service Stations,Garcia,"South Central Ave & East 52nd St, Los Angeles, California, United States",Los Angeles,33.9958421,-118.2564716,https://upload.wikimedia.org/wikipedia/commons/thumb/7/70/The_Negro_Motorist_Green_Book.jpg/646px-The_Negro_Motorist_Green_Book.jpg,https://digitalcollections.nypl.org/items/29219280-892b-0132-4271-58d385a7bbd96
Garages,Parkers,"2100 East 103rd St., Los Angeles, California, United States",Los Angeles,33.9428919,-118.2347028,https://upload.wikimedia.org/wikipedia/commons/thumb/7/70/The_Negro_Motorist_Green_Book.jpg/646px-The_Negro_Motorist_Green_Book.jpg,https://digitalcollections.nypl.org/items/29219280-892b-0132-4271-58d385a7bbd97
Garages,La Clare,"West Jefferson Blvd & Hill St, Los Angeles, California, United States",Los Angeles,34.0196752,-118.2749077,https://upload.wikimedia.org/wikipedia/commons/thumb/7/70/The_Negro_Motorist_Green_Book.jpg/646px-The_Negro_Motorist_Green_Book.jpg,https://digitalcollections.nypl.org/items/29219280-892b-0132-4271-58d385a7bbd98
Garages,McAdam's,"1448 West Jefferson Blvd., Los Angeles, California, United States",Los Angeles,34.0251036,-118.2989223,https://upload.wikimedia.org/wikipedia/commons/thumb/7/70/The_Negro_Motorist_Green_Book.jpg/646px-The_Negro_Motorist_Green_Book.jpg,https://digitalcollections.nypl.org/items/29219280-892b-0132-4271-58d385a7bbd99
Garages,Bill's,"4106 Avalon Blvd., Los Angeles, California, United States",Los Angeles,34.0088322,-118.2652673,https://upload.wikimedia.org/wikipedia/commons/thumb/7/70/The_Negro_Motorist_Green_Book.jpg/646px-The_Negro_Motorist_Green_Book.jpg,https://digitalcollections.nypl.org/items/29219280-892b-0132-4271-58d385a7bbd100
Garages,Alexander's,"Jefferson & Griffith, Los Angeles, California, United States",Los Angeles,34.0137762,-118.2615332,https://upload.wikimedia.org/wikipedia/commons/thumb/7/70/The_Negro_Motorist_Green_Book.jpg/646px-The_Negro_Motorist_Green_Book.jpg,https://digitalcollections.nypl.org/items/29219280-892b-0132-4271-58d385a7bbd101
Automotive,Lee's,"4820 South Central Ave., Los Angeles, California, United States",Los Angeles,33.9991893,-118.256246,https://upload.wikimedia.org/wikipedia/commons/thumb/7/70/The_Negro_Motorist_Green_Book.jpg/646px-The_Negro_Motorist_Green_Book.jpg,https://digitalcollections.nypl.org/items/29219280-892b-0132-4271-58d385a7bbd102
Automotive,Auto Parts,"864 North Virgil Ave., Los Angeles, California, United States",Los Angeles,34.0873173,-118.28666,https://upload.wikimedia.org/wikipedia/commons/thumb/7/70/The_Negro_Motorist_Green_Book.jpg/646px-The_Negro_Motorist_Green_Book.jpg,https://digitalcollections.nypl.org/items/29219280-892b-0132-4271-58d385a7bbd103
Drug Stores,Allums,"4375 South Central Ave., Los Angeles, California, United States",Los Angeles,34.0040906,-118.2567091,https://upload.wikimedia.org/wikipedia/commons/thumb/7/70/The_Negro_Motorist_Green_Book.jpg/646px-The_Negro_Motorist_Green_Book.jpg,https://digitalcollections.nypl.org/items/29219280-892b-0132-4271-58d385a7bbd104
Drug Stores,Doctor's,"4012 South Central Ave., Los Angeles, California, United States",Los Angeles,34.010729,-118.2565223,https://upload.wikimedia.org/wikipedia/commons/thumb/7/70/The_Negro_Motorist_Green_Book.jpg/646px-The_Negro_Motorist_Green_Book.jpg,https://digitalcollections.nypl.org/items/29219280-892b-0132-4271-58d385a7bbd105
Drug Stores,Medical,"3112 South Western Ave., Los Angeles, California, United States",Los Angeles,34.0260464,-118.3085595,https://upload.wikimedia.org/wikipedia/commons/thumb/7/70/The_Negro_Motorist_Green_Book.jpg/646px-The_Negro_Motorist_Green_Book.jpg,https://digitalcollections.nypl.org/items/29219280-892b-0132-4271-58d385a7bbd106
Drug Stores,Martinas,"4406 South Avalon Ave., Los Angeles, California, United States",Los Angeles,34.0035468,-118.2651273,https://upload.wikimedia.org/wikipedia/commons/thumb/7/70/The_Negro_Motorist_Green_Book.jpg/646px-The_Negro_Motorist_Green_Book.jpg,https://digitalcollections.nypl.org/items/29219280-892b-0132-4271-58d385a7bbd107
Drug Stores,Slopers,"2100 West Jefferson Blvd., Los Angeles, California, United States",Los Angeles,34.0255543,-118.3176617,https://upload.wikimedia.org/wikipedia/commons/thumb/7/70/The_Negro_Motorist_Green_Book.jpg/646px-The_Negro_Motorist_Green_Book.jpg,https://digitalcollections.nypl.org/items/29219280-892b-0132-4271-58d385a7bbd108
Tailors,Bader's,"1840 East 103rd St., Los Angeles, California, United States",Los Angeles,33.9431692,-118.2401678,https://upload.wikimedia.org/wikipedia/commons/thumb/7/70/The_Negro_Motorist_Green_Book.jpg/646px-The_Negro_Motorist_Green_Book.jpg,https://digitalcollections.nypl.org/items/29219280-892b-0132-4271-58d385a7bbd109
Tailors,Delta,"8512 Compton Ave., Los Angeles, California, United States",Los Angeles,33.9608672,-118.2474553,https://upload.wikimedia.org/wikipedia/commons/thumb/7/70/The_Negro_Motorist_Green_Book.jpg/646px-The_Negro_Motorist_Green_Book.jpg,https://digitalcollections.nypl.org/items/29219280-892b-0132-4271-58d385a7bbd110
Tailors,Duver Bros.,"811 East 5th St., Los Angeles, California, United States",Los Angeles,34.042239,-118.2407326,https://upload.wikimedia.org/wikipedia/commons/thumb/7/70/The_Negro_Motorist_Green_Book.jpg/646px-The_Negro_Motorist_Green_Book.jpg,https://digitalcollections.nypl.org/items/29219280-892b-0132-4271-58d385a7bbd111
Tailors,Progressive,"4302 South Central Ave., Los Angeles, California, United States",Los Angeles,34.0052523,-118.2565046,https://upload.wikimedia.org/wikipedia/commons/thumb/7/70/The_Negro_Motorist_Green_Book.jpg/646px-The_Negro_Motorist_Green_Book.jpg,https://digitalcollections.nypl.org/items/29219280-892b-0132-4271-58d385a7bbd112
Tailors,Beason,"2901 South Western Ave., Los Angeles, California, United States",Los Angeles,34.0289622,-118.3091641,https://upload.wikimedia.org/wikipedia/commons/thumb/7/70/The_Negro_Motorist_Green_Book.jpg/646px-The_Negro_Motorist_Green_Book.jpg,https://digitalcollections.nypl.org/items/29219280-892b-0132-4271-58d385a7bbd113
Beauty Parlor,Little Gem,1511 Russell St.,Berkeley,37.8551733,-122.27888,https://upload.wikimedia.org/wikipedia/commons/thumb/7/70/The_Negro_Motorist_Green_Book.jpg/646px-The_Negro_Motorist_Green_Book.jpg,
Barber Shop,Success,2946 Sacramento St.,Berkeley,37.854105,-122.2792783,https://upload.wikimedia.org/wikipedia/commons/thumb/7/70/The_Negro_Motorist_Green_Book.jpg/646px-The_Negro_Motorist_Green_Book.jpg,
Tavern,Schaeffer's,2940 Sacremento St.,Berkeley,37.8541873,-122.2792974,https://upload.wikimedia.org/wikipedia/commons/thumb/7/70/The_Negro_Motorist_Green_Book.jpg/646px-The_Negro_Motorist_Green_Book.jpg,
Hotel,The Roland,201 E. Main St.,El Centro,32.7928162,-115.5413978,https://upload.wikimedia.org/wikipedia/commons/thumb/7/70/The_Negro_Motorist_Green_Book.jpg/646px-The_Negro_Motorist_Green_Book.jpg,
Tourist Homes,Mrs. L. Augustas,420 Commerical Ave.,El Centro,32.7951346,-115.5531434,https://upload.wikimedia.org/wikipedia/commons/thumb/7/70/The_Negro_Motorist_Green_Book.jpg/646px-The_Negro_Motorist_Green_Book.jpg,
Restaurants,Pearl McKinney Lunch,301 Main St.,El Centro,32.7928218,-115.548803,https://upload.wikimedia.org/wikipedia/commons/thumb/7/70/The_Negro_Motorist_Green_Book.jpg/646px-The_Negro_Motorist_Green_Book.jpg,
Hotel,Claren,145 N. Front St.,Fresno,36.7377981,-119.7871247,https://upload.wikimedia.org/wikipedia/commons/thumb/7/70/The_Negro_Motorist_Green_Book.jpg/646px-The_Negro_Motorist_Green_Book.jpg,
Tourist Homes,La Silve,841 F St.,Fresno,36.7290572,-119.7937641,https://upload.wikimedia.org/wikipedia/commons/thumb/7/70/The_Negro_Motorist_Green_Book.jpg/646px-The_Negro_Motorist_Green_Book.jpg,
Restaurants,Taylor's,1402 C. Street,Fresno,36.7323138,-119.8024495,https://upload.wikimedia.org/wikipedia/commons/thumb/7/70/The_Negro_Motorist_Green_Book.jpg/646px-The_Negro_Motorist_Green_Book.jpg,
Restaurants,Collins,847 G St.,Fresno,36.7297031,-119.7922643,https://upload.wikimedia.org/wikipedia/commons/thumb/7/70/The_Negro_Motorist_Green_Book.jpg/646px-The_Negro_Motorist_Green_Book.jpg,
Restaurants,DeLuxe,1228 F Street,Fresno,36.7327906,-119.7974975,https://upload.wikimedia.org/wikipedia/commons/thumb/7/70/The_Negro_Motorist_Green_Book.jpg/646px-The_Negro_Motorist_Green_Book.jpg,
Restaurants,Stella's,1861 G Street,Fresno,36.7400475,-119.8043263,https://upload.wikimedia.org/wikipedia/commons/thumb/7/70/The_Negro_Motorist_Green_Book.jpg/646px-The_Negro_Motorist_Green_Book.jpg,
Restaurants,Stella's,1861 G Street,Fresno,36.7400475,-119.8043263,https://upload.wikimedia.org/wikipedia/commons/thumb/7/70/The_Negro_Motorist_Green_Book.jpg/646px-The_Negro_Motorist_Green_Book.jpg,
Restaurants,New Jerico,101 Church St.,Fresno,36.7377981,-119.7871247,https://upload.wikimedia.org/wikipedia/commons/thumb/7/70/The_Negro_Motorist_Green_Book.jpg/646px-The_Negro_Motorist_Green_Book.jpg,
Beauty Parlor,Rosebud,835 G Street,Fresno,36.7295821,-119.79213,https://upload.wikimedia.org/wikipedia/commons/thumb/7/70/The_Negro_Motorist_Green_Book.jpg/646px-The_Negro_Motorist_Green_Book.jpg,
Beauty Parlor,Clara's,855 G Street,Fresno,36.7297837,-119.7923538,https://upload.wikimedia.org/wikipedia/commons/thumb/7/70/The_Negro_Motorist_Green_Book.jpg/646px-The_Negro_Motorist_Green_Book.jpg,
Beauty Parlor,Ruth's,1816 F Street,Fresno,36.7208361,-119.7840067,https://upload.wikimedia.org/wikipedia/commons/thumb/7/70/The_Negro_Motorist_Green_Book.jpg/646px-The_Negro_Motorist_Green_Book.jpg,
Beauty Parlor,Clara's,855 G Street,Fresno,36.7297837,-119.7923538,https://upload.wikimedia.org/wikipedia/commons/thumb/7/70/The_Negro_Motorist_Green_Book.jpg/646px-The_Negro_Motorist_Green_Book.jpg,
Beauty Parlor,Golden West,1032 F Street,Fresno,36.7311182,-119.7952705,https://upload.wikimedia.org/wikipedia/commons/thumb/7/70/The_Negro_Motorist_Green_Book.jpg/646px-The_Negro_Motorist_Green_Book.jpg,
Barber Shop,DeLuxe,725 G Street,Fresno,36.7284602,-119.7913897,https://upload.wikimedia.org/wikipedia/commons/thumb/7/70/The_Negro_Motorist_Green_Book.jpg/646px-The_Negro_Motorist_Green_Book.jpg,
Barber Shop,Golden West,1032 F Street,Fresno,36.7311182,-119.7952705,https://upload.wikimedia.org/wikipedia/commons/thumb/7/70/The_Negro_Motorist_Green_Book.jpg/646px-The_Negro_Motorist_Green_Book.jpg,
Barber Shop,Magnolia,602 F Street,Fresno,36.726762,-119.790534,https://upload.wikimedia.org/wikipedia/commons/thumb/7/70/The_Negro_Motorist_Green_Book.jpg/646px-The_Negro_Motorist_Green_Book.jpg,
Barber Shop,Sportman's,855 G Street,Fresno,36.7297837,-119.7923538,https://upload.wikimedia.org/wikipedia/commons/thumb/7/70/The_Negro_Motorist_Green_Book.jpg/646px-The_Negro_Motorist_Green_Book.jpg,
Barber Shop,Esquire,1011 G Street,Fresno,36.7313058,-119.7940366,https://upload.wikimedia.org/wikipedia/commons/thumb/7/70/The_Negro_Motorist_Green_Book.jpg/646px-The_Negro_Motorist_Green_Book.jpg,
Tavern,20th Century,1401 F Street,Fresno,36.7345355,-119.7994079,https://upload.wikimedia.org/wikipedia/commons/thumb/7/70/The_Negro_Motorist_Green_Book.jpg/646px-The_Negro_Motorist_Green_Book.jpg,
Garage,Buddy Lane's ,1335 F Street,Fresno,36.7334811,-119.7991186,https://upload.wikimedia.org/wikipedia/commons/thumb/7/70/The_Negro_Motorist_Green_Book.jpg/646px-The_Negro_Motorist_Green_Book.jpg,
Garage,Frank's,1326 Fresno Street,Fresno,36.7312303,-119.7987727,https://upload.wikimedia.org/wikipedia/commons/thumb/7/70/The_Negro_Motorist_Green_Book.jpg/646px-The_Negro_Motorist_Green_Book.jpg,
Trailer Parks & Camps,Barnes Drive In,1412 F Street,Fresno,36.7349418,-119.7992946,https://upload.wikimedia.org/wikipedia/commons/thumb/7/70/The_Negro_Motorist_Green_Book.jpg/646px-The_Negro_Motorist_Green_Book.jpg,
Tailors,Jackson's ,1205 Sacrmento Street,Fresno,36.7418193,-119.8020719,https://upload.wikimedia.org/wikipedia/commons/thumb/7/70/The_Negro_Motorist_Green_Book.jpg/646px-The_Negro_Motorist_Green_Book.jpg,
Motel,Geo. Moore,407 Scrivener Street,Elsinore,33.6766609,-117.3350897,https://upload.wikimedia.org/wikipedia/commons/thumb/7/70/The_Negro_Motorist_Green_Book.jpg/646px-The_Negro_Motorist_Green_Book.jpg,
Tourist Homes,Jam. W. Brown,2881 Seattle Dr.,Hollywood,34.1232387,-118.3624937,https://upload.wikimedia.org/wikipedia/commons/thumb/7/70/The_Negro_Motorist_Green_Book.jpg/646px-The_Negro_Motorist_Green_Book.jpg,
Hotel,Warren,1252 7th Street,Oakland,37.8043823,-122.290397,https://upload.wikimedia.org/wikipedia/commons/thumb/7/70/The_Negro_Motorist_Green_Book.jpg/646px-The_Negro_Motorist_Green_Book.jpg,
Tourist Homes,Mrs. A. C. Clark,805 Linden St.,Oakland,37.8033275,-122.2860623,https://upload.wikimedia.org/wikipedia/commons/thumb/7/70/The_Negro_Motorist_Green_Book.jpg/646px-The_Negro_Motorist_Green_Book.jpg,
Restaurants,The Villa,1724 7th St.,Oakland,37.8070566,-122.3014946,https://upload.wikimedia.org/wikipedia/commons/thumb/7/70/The_Negro_Motorist_Green_Book.jpg/646px-The_Negro_Motorist_Green_Book.jpg,
Beauty Parlor,Personality,3613 San Dablo Avenue,Oakland,37.8273412,-122.2789594,https://upload.wikimedia.org/wikipedia/commons/thumb/7/70/The_Negro_Motorist_Green_Book.jpg/646px-The_Negro_Motorist_Green_Book.jpg,
Tavern,Overland Cafe,1719 7th St.,Oakland,37.8072274,-122.3027759,https://upload.wikimedia.org/wikipedia/commons/thumb/7/70/The_Negro_Motorist_Green_Book.jpg/646px-The_Negro_Motorist_Green_Book.jpg,
Tavern,Rythm Buffet,1704 7th St.,Oakland,37.8069401,-122.3009258,https://upload.wikimedia.org/wikipedia/commons/thumb/7/70/The_Negro_Motorist_Green_Book.jpg/646px-The_Negro_Motorist_Green_Book.jpg,
Service Stations,Summers,1251 7th St.,Oakland,37.8042889,-122.2904705,https://upload.wikimedia.org/wikipedia/commons/thumb/7/70/The_Negro_Motorist_Green_Book.jpg/646px-The_Negro_Motorist_Green_Book.jpg,
Service Stations,McCabe,5901 Adeline St.,Oakland,37.8439002,-122.2734564,https://upload.wikimedia.org/wikipedia/commons/thumb/7/70/The_Negro_Motorist_Green_Book.jpg/646px-The_Negro_Motorist_Green_Book.jpg,
Service Stations,Signal,800 Center St.,Oakland,37.8084238,-122.2940402,https://upload.wikimedia.org/wikipedia/commons/thumb/7/70/The_Negro_Motorist_Green_Book.jpg/646px-The_Negro_Motorist_Green_Book.jpg,
Restaurants,Hub,Orange Grove at Fair Oaks,Pasadena,34.1577934,-118.1505726,https://upload.wikimedia.org/wikipedia/commons/thumb/7/70/The_Negro_Motorist_Green_Book.jpg/646px-The_Negro_Motorist_Green_Book.jpg,
Tavern,Kentucky,1067 N. Fair Oaks,Pasadena,34.1644751,-118.1514703,https://upload.wikimedia.org/wikipedia/commons/thumb/7/70/The_Negro_Motorist_Green_Book.jpg/646px-The_Negro_Motorist_Green_Book.jpg,
Service Stations,Penn. Mobile,1096 Lincoln Ave.,Pasadena,34.1629104,-118.1603366,https://upload.wikimedia.org/wikipedia/commons/thumb/7/70/The_Negro_Motorist_Green_Book.jpg/646px-The_Negro_Motorist_Green_Book.jpg,
Service Stations,Stacy's,N. Fair Oaks Avenue,Pasadena,34.1779538,-118.1507777,https://upload.wikimedia.org/wikipedia/commons/thumb/7/70/The_Negro_Motorist_Green_Book.jpg/646px-The_Negro_Motorist_Green_Book.jpg,
Tourist Homes,S. M. Carlton,939 W. 6th St.,San Bernardino,34.109958,-117.3039594,https://upload.wikimedia.org/wikipedia/commons/thumb/7/70/The_Negro_Motorist_Green_Book.jpg/646px-The_Negro_Motorist_Green_Book.jpg,
Hotel,Douglass,206 Market St.,San Diego,32.7116687,-117.1626416,https://upload.wikimedia.org/wikipedia/commons/thumb/7/70/The_Negro_Motorist_Green_Book.jpg/646px-The_Negro_Motorist_Green_Book.jpg,
Hotel,Simmons,542 6th Avenue,San Diego,32.7109989,-117.159402,https://upload.wikimedia.org/wikipedia/commons/thumb/7/70/The_Negro_Motorist_Green_Book.jpg/646px-The_Negro_Motorist_Green_Book.jpg,
Hotel,Y.W.C.A,2905 Clay St.,San Diego,32.7029553,-117.1315537,https://upload.wikimedia.org/wikipedia/commons/thumb/7/70/The_Negro_Motorist_Green_Book.jpg/646px-The_Negro_Motorist_Green_Book.jpg,
Hotel,Y.M.C.A,2905 Clay St.,San Diego,32.7029553,-117.1315537,https://upload.wikimedia.org/wikipedia/commons/thumb/7/70/The_Negro_Motorist_Green_Book.jpg/646px-The_Negro_Motorist_Green_Book.jpg,
Tourist Homes,Johnson's,18 N. 30th St.,San Diego,32.7059825,-117.1297043,https://upload.wikimedia.org/wikipedia/commons/thumb/7/70/The_Negro_Motorist_Green_Book.jpg/646px-The_Negro_Motorist_Green_Book.jpg,
Restaurants,Sun,421 Market St.,San Diego,32.711246,-117.160617,https://upload.wikimedia.org/wikipedia/commons/thumb/7/70/The_Negro_Motorist_Green_Book.jpg/646px-The_Negro_Motorist_Green_Book.jpg,
Restaurants,Brown Hostess,2816 Imperial Ave.,San Diego,32.7065171,-117.1335408,https://upload.wikimedia.org/wikipedia/commons/thumb/7/70/The_Negro_Motorist_Green_Book.jpg/646px-The_Negro_Motorist_Green_Book.jpg,
Service Stations,Weber's,2nd Street and Market Street,San Diego,32.7115423,-117.118682,https://upload.wikimedia.org/wikipedia/commons/thumb/7/70/The_Negro_Motorist_Green_Book.jpg/646px-The_Negro_Motorist_Green_Book.jpg,
Service Stations,Woodson's,30th Street and K Street,San Diego,32.7084926,-117.1302351,https://upload.wikimedia.org/wikipedia/commons/thumb/7/70/The_Negro_Motorist_Green_Book.jpg/646px-The_Negro_Motorist_Green_Book.jpg,
Tavern,Night Hawk,2971 Market Street,San Diego,32.7112954,-117.1306345,https://upload.wikimedia.org/wikipedia/commons/thumb/7/70/The_Negro_Motorist_Green_Book.jpg/646px-The_Negro_Motorist_Green_Book.jpg,
Tailors,Clever,2606 Imperial Avenue,San Diego,32.7064913,-117.1379167,https://upload.wikimedia.org/wikipedia/commons/thumb/7/70/The_Negro_Motorist_Green_Book.jpg/646px-The_Negro_Motorist_Green_Book.jpg,
Tailors,Imperial,2751 Imperial Avenue,San Diego,32.7062222,-117.134357,https://upload.wikimedia.org/wikipedia/commons/thumb/7/70/The_Negro_Motorist_Green_Book.jpg/646px-The_Negro_Motorist_Green_Book.jpg,
Drug Stores,Imperial,30th and Imperial Avenue,San Diego,32.7064034,-117.1295415,https://upload.wikimedia.org/wikipedia/commons/thumb/7/70/The_Negro_Motorist_Green_Book.jpg/646px-The_Negro_Motorist_Green_Book.jpg,
Hotel,Buford,1969 Sutter St.,San Francisco,37.7859684,-122.4326899,https://upload.wikimedia.org/wikipedia/commons/thumb/7/70/The_Negro_Motorist_Green_Book.jpg/646px-The_Negro_Motorist_Green_Book.jpg,
Hotel,The Scaggs,1715 Webster St.,San Francisco,37.7866573,-122.4319931,https://upload.wikimedia.org/wikipedia/commons/thumb/7/70/The_Negro_Motorist_Green_Book.jpg/646px-The_Negro_Motorist_Green_Book.jpg,
Hotel,Powell,Powell Street and Market Street,San Francisco,37.7846003,-122.4073378,https://upload.wikimedia.org/wikipedia/commons/thumb/7/70/The_Negro_Motorist_Green_Book.jpg/646px-The_Negro_Motorist_Green_Book.jpg,
Tourist Homes,Mrs. F. Johnson,1788 Sutter St.,San Francisco,37.7866529,-122.4296926,https://upload.wikimedia.org/wikipedia/commons/thumb/7/70/The_Negro_Motorist_Green_Book.jpg/646px-The_Negro_Motorist_Green_Book.jpg,
Tourist Homes,Helen's Guest House,1951 Sutter St.,San Francisco,37.7862008,-122.4324092,https://upload.wikimedia.org/wikipedia/commons/thumb/7/70/The_Negro_Motorist_Green_Book.jpg/646px-The_Negro_Motorist_Green_Book.jpg,
Restaurants,Calif. Theatre,1605 Post St.,San Francisco,37.7854188,-122.428141,https://upload.wikimedia.org/wikipedia/commons/thumb/7/70/The_Negro_Motorist_Green_Book.jpg/646px-The_Negro_Motorist_Green_Book.jpg,
Beauty Parlor,Arineica's,1928 Fillmore St.,San Francisco,37.7876005,-122.4333424,https://upload.wikimedia.org/wikipedia/commons/thumb/7/70/The_Negro_Motorist_Green_Book.jpg/646px-The_Negro_Motorist_Green_Book.jpg,
Tavern,Jack's,1931 Sutter St.,San Francisco,37.7861373,-122.4320463,https://upload.wikimedia.org/wikipedia/commons/thumb/7/70/The_Negro_Motorist_Green_Book.jpg/646px-The_Negro_Motorist_Green_Book.jpg,
Night Club,Town Club,1963 Sutter St.,San Francisco,37.785977,-122.4326014,https://upload.wikimedia.org/wikipedia/commons/thumb/7/70/The_Negro_Motorist_Green_Book.jpg/646px-The_Negro_Motorist_Green_Book.jpg,
Drug Stores,Riggan's,2600 Sutter St.,San Francisco,37.7849566,-122.4433842,https://upload.wikimedia.org/wikipedia/commons/thumb/7/70/The_Negro_Motorist_Green_Book.jpg/646px-The_Negro_Motorist_Green_Book.jpg,
Tavern,La Nobita,1807 Belmont Place,Santa Monica,34.0194543,-118.4911912,https://upload.wikimedia.org/wikipedia/commons/thumb/7/70/The_Negro_Motorist_Green_Book.jpg/646px-The_Negro_Motorist_Green_Book.jpg,
Tourist Homes,South K St.,330 South K. St.,Tulare,36.2050921,-119.3450999,https://upload.wikimedia.org/wikipedia/commons/thumb/7/70/The_Negro_Motorist_Green_Book.jpg/646px-The_Negro_Motorist_Green_Book.jpg,
Tavern,King's,322-24 South K. St.,Tulare,36.2052064,-119.3451307,https://upload.wikimedia.org/wikipedia/commons/thumb/7/70/The_Negro_Motorist_Green_Book.jpg/646px-The_Negro_Motorist_Green_Book.jpg,
Tavern,Cotton Club,Virginia and Branciforte,Vallejo,38.1075024,-122.2614873,https://upload.wikimedia.org/wikipedia/commons/thumb/7/70/The_Negro_Motorist_Green_Book.jpg/646px-The_Negro_Motorist_Green_Book.jpg,
Tourist Homes,Murray's Dude Ranch,,Victorville,34.5362184,-117.2927641,https://upload.wikimedia.org/wikipedia/commons/thumb/7/70/The_Negro_Motorist_Green_Book.jpg/646px-The_Negro_Motorist_Green_Book.jpg,